[{"OBJECT_NAME":"FFLY01","OBJECT_ID":"2025-188F","EPOCH":"2026-03-09T23:07:21.655776","MEAN_MOTION":14.92848579,"ECCENTRICITY":0.00112982,"INCLINATION":97.7442,"RA_OF_ASC_NODE":145.8408,"ARG_OF_PERICENTER":138.2853,"MEAN_ANOMALY":221.923,"EPHEMERIS_TYPE":0,"CLASSIFICATION_TYPE":"U","NORAD_CAT_ID":65320,"ELEMENT_SET_NO":999,"REV_AT_EPOCH":2910,"BSTAR":0.000290729,"MEAN_MOTION_DOT":2.958e-5,"MEAN_MOTION_DDOT":0},{"OBJECT_NAME":"CZ-2C DEB","OBJECT_ID":"2014-066E","EPOCH":"2026-03-09T21:55:34.712544","MEAN_MOTION":14.96320405,"ECCENTRICITY":0.00459749,"INCLINATION":97.9301,"RA_OF_ASC_NODE":44.7594,"ARG_OF_PERICENTER":158.4857,"MEAN_ANOMALY":201.831,"EPHEMERIS_TYPE":0,"CLASSIFICATION_TYPE":"U","NORAD_CAT_ID":40290,"ELEMENT_SET_NO":999,"REV_AT_EPOCH":60512,"BSTAR":0.0018751551,"MEAN_MOTION_DOT":0.00021654,"MEAN_MOTION_DDOT":0}]
